GLOBALSTAR M094         
1 39074U 13005C   25132.54378314 -.00000106  00000+0 -11938-4 0  9994
2 39074  51.9963 290.6390 0000884 129.9863 230.1081 12.62270752567877
GLOBALSTAR M096         
1 39075U 13005D   25132.55705427 -.00000088  00000+0  89325-4 0  9998
2 39075  52.0092 339.0864 0000961 109.9645 250.1326 12.62271214567147
GLOBALSTAR M078         
1 39076U 13005E   25132.53040073 -.00000103  00000+0  39279-5 0  9998
2 39076  51.9883  63.7212 0001411  88.2488 271.8540 12.62261690565410
GLOBALSTAR M095         
1 39077U 13005F   25132.47765912 -.00000110  00000+0 -35576-4 0  9992
2 39077  51.9811  61.0965 0000888  97.6258 262.4709 12.62269525565265
GLOBALSTAR M087         
1 52888U 22064A   25132.58746480 -.00000071  00000+0  18519-3 0  9995
2 52888  51.9980 202.1815 0000479 135.5032 224.5873 12.62263010140541
